{
  "type": "FeatureCollection",
  "features": [
    {
      "type": "Feature",
      "properties": {
        "norad_id": 22675,
        "name": "COSMOS 2251",
        "group": "cosmos-2251-debris",
        "lat": -71.36539225873133,
        "lon": -121.67605206999673,
        "alt_km": 789.7485369288197,
        "timestamp": "2025-12-23T09:49:07.475263+00:00",
        "meta_object_name": "COSMOS 2251",
        "meta_object_id": "1993-036A",
        "meta_epoch": "2025-12-22T22:27:54.447840",
        "meta_mean_motion": 14.3320771,
        "meta_eccentricity": 0.00243738,
        "meta_inclination": 74.04,
        "meta_ra_of_asc_node": 297.2535,
        "meta_arg_of_pericenter": 16.7168,
        "meta_mean_anomaly": 343.4781,
        "meta_ephemeris_type": 0,
        "meta_classification_type": "U",
        "meta_norad_cat_id": 22675,
        "meta_element_set_no": 999,
        "meta_rev_at_epoch": 69919,
        "meta_bstar": 5.1858642e-05,
        "meta_mean_motion_dot": 1.17e-06,
        "meta_mean_motion_ddot": 0,
        "tle_line1": "1 22675U 93036A   25356.93604685  .00000117  00000+0  51859-4 0  9995",
        "tle_line2": "2 22675  74.0400 297.2535 0024373  16.7168 343.4781 14.33207710699192"
      },
      "geometry": {
        "type": "Point",
        "coordinates": [
          -121.67605206999673,
          -71.36539225873133
        ]
      }
    },
    {
      "type": "Feature",
      "properties": {
        "norad_id": 33757,
        "name": "COSMOS 2251 DEB",
        "group": "cosmos-2251-debris",
        "lat": -60.78852326752368,
        "lon": -86.65798100364489,
        "alt_km": 779.4674137428601,
        "timestamp": "2025-12-23T09:49:07.475286+00:00",
        "meta_object_name": "COSMOS 2251 DEB",
        "meta_object_id": "1993-036E",
        "meta_epoch": "2025-12-22T22:41:11.200992",
        "meta_mean_motion": 14.32583497,
        "meta_eccentricity": 0.00155942,
        "meta_inclination": 74.0374,
        "meta_ra_of_asc_node": 304.9786,
        "meta_arg_of_pericenter": 316.6349,
        "meta_mean_anomaly": 107.0351,
        "meta_ephemeris_type": 0,
        "meta_classification_type": "U",
        "meta_norad_cat_id": 33757,
        "meta_element_set_no": 999,
        "meta_rev_at_epoch": 88142,
        "meta_bstar": 4.3845704e-05,
        "meta_mean_motion_dot": 9.3e-07,
        "meta_mean_motion_ddot": 0,
        "tle_line1": "1 33757U 93036E   25356.94526853  .00000093  00000+0  43846-4 0  9999",
        "tle_line2": "2 33757  74.0374 304.9786 0015594 316.6349 107.0351 14.32583497881421"
      },
      "geometry": {
        "type": "Point",
        "coordinates": [
          -86.65798100364489,
          -60.78852326752368
        ]
      }
    },
    {
      "type": "Feature",
      "properties": {
        "norad_id": 33758,
        "name": "COSMOS 2251 DEB",
        "group": "cosmos-2251-debris",
        "lat": -65.44605662328736,
        "lon": 53.7596694065082,
        "alt_km": 715.1102126978412,
        "timestamp": "2025-12-23T09:49:07.475300+00:00",
        "meta_object_name": "COSMOS 2251 DEB",
        "meta_object_id": "1993-036F",
        "meta_epoch": "2025-12-22T14:43:42.029760",
        "meta_mean_motion": 14.5164787,
        "meta_eccentricity": 0.00171787,
        "meta_inclination": 74.0263,
        "meta_ra_of_asc_node": 196.4312,
        "meta_arg_of_pericenter": 262.4772,
        "meta_mean_anomaly": 153.4333,
        "meta_ephemeris_type": 0,
        "meta_classification_type": "U",
        "meta_norad_cat_id": 33758,
        "meta_element_set_no": 999,
        "meta_rev_at_epoch": 88448,
        "meta_bstar": 0.00069241889,
        "meta_mean_motion_dot": 2.755e-05,
        "meta_mean_motion_ddot": 0,
        "tle_line1": "1 33758U 93036F   25356.61368090  .00002755  00000+0  69242-3 0  9995",
        "tle_line2": "2 33758  74.0263 196.4312 0017178 262.4772 153.4333 14.51647870884487"
      },
      "geometry": {
        "type": "Point",
        "coordinates": [
          53.7596694065082,
          -65.44605662328736
        ]
      }
    },
    {
      "type": "Feature",
      "properties": {
        "norad_id": 33760,
        "name": "COSMOS 2251 DEB",
        "group": "cosmos-2251-debris",
        "lat": -55.803681743483956,
        "lon": -123.04550026676922,
        "alt_km": 771.5630478663415,
        "timestamp": "2025-12-23T09:49:07.475312+00:00",
        "meta_object_name": "COSMOS 2251 DEB",
        "meta_object_id": "1993-036H",
        "meta_epoch": "2025-12-22T21:02:32.224704",
        "meta_mean_motion": 14.35679105,
        "meta_eccentricity": 0.0020311,
        "meta_inclination": 74.032,
        "meta_ra_of_asc_node": 262.8525,
        "meta_arg_of_pericenter": 358.761,
        "meta_mean_anomaly": 71.8128,
        "meta_ephemeris_type": 0,
        "meta_classification_type": "U",
        "meta_norad_cat_id": 33760,
        "meta_element_set_no": 999,
        "meta_rev_at_epoch": 88270,
        "meta_bstar": 0.00010422716,
        "meta_mean_motion_dot": 2.75e-06,
        "meta_mean_motion_ddot": 0,
        "tle_line1": "1 33760U 93036H   25356.87676186  .00000275  00000+0  10423-3 0  9996",
        "tle_line2": "2 33760  74.0320 262.8525 0020311 358.7610  71.8128 14.35679105882707"
      },
      "geometry": {
        "type": "Point",
        "coordinates": [
          -123.04550026676922,
          -55.803681743483956
        ]
      }
    },
    {
      "type": "Feature",
      "properties": {
        "norad_id": 33761,
        "name": "COSMOS 2251 DEB",
        "group": "cosmos-2251-debris",
        "lat": 43.83635351684368,
        "lon": 36.41415645116745,
        "alt_km": 762.5391140020511,
        "timestamp": "2025-12-23T09:49:07.475323+00:00",
        "meta_object_name": "COSMOS 2251 DEB",
        "meta_object_id": "1993-036J",
        "meta_epoch": "2025-12-21T22:19:07.214304",
        "meta_mean_motion": 14.42569564,
        "meta_eccentricity": 0.00232733,
        "meta_inclination": 74.0352,
        "meta_ra_of_asc_node": 235.1119,
        "meta_arg_of_pericenter": 314.0482,
        "meta_mean_anomaly": 61.202,
        "meta_ephemeris_type": 0,
        "meta_classification_type": "U",
        "meta_norad_cat_id": 33761,
        "meta_element_set_no": 999,
        "meta_rev_at_epoch": 88367,
        "meta_bstar": 0.00034386212,
        "meta_mean_motion_dot": 1.118e-05,
        "meta_mean_motion_ddot": 0,
        "tle_line1": "1 33761U 93036J   25355.92994461  .00001118  00000+0  34386-3 0  9992",
        "tle_line2": "2 33761  74.0352 235.1119 0023273 314.0482  61.2020 14.42569564883673"
      },
      "geometry": {
        "type": "Point",
        "coordinates": [
          36.41415645116745,
          43.83635351684368
        ]
      }
    },
    {
      "type": "Feature",
      "properties": {
        "norad_id": 33762,
        "name": "COSMOS 2251 DEB",
        "group": "cosmos-2251-debris",
        "lat": 17.474612438524076,
        "lon": 105.352812937194,
        "alt_km": 790.5251081453898,
        "timestamp": "2025-12-23T09:49:07.475335+00:00",
        "meta_object_name": "COSMOS 2251 DEB",
        "meta_object_id": "1993-036K",
        "meta_epoch": "2025-12-22T19:48:34.244640",
        "meta_mean_motion": 14.33666653,
        "meta_eccentricity": 0.00154223,
        "meta_inclination": 74.0422,
        "meta_ra_of_asc_node": 291.5876,
        "meta_arg_of_pericenter": 350.6444,
        "meta_mean_anomaly": 39.5502,
        "meta_ephemeris_type": 0,
        "meta_classification_type": "U",
        "meta_norad_cat_id": 33762,
        "meta_element_set_no": 999,
        "meta_rev_at_epoch": 88192,
        "meta_bstar": 4.7837348e-05,
        "meta_mean_motion_dot": 1.07e-06,
        "meta_mean_motion_ddot": 0,
        "tle_line1": "1 33762U 93036K   25356.82539635  .00000107  00000+0  47837-4 0  9994",
        "tle_line2": "2 33762  74.0422 291.5876 0015422 350.6444  39.5502 14.33666653881925"
      },
      "geometry": {
        "type": "Point",
        "coordinates": [
          105.352812937194,
          17.474612438524076
        ]
      }
    },
    {
      "type": "Feature",
      "properties": {
        "norad_id": 33764,
        "name": "COSMOS 2251 DEB",
        "group": "cosmos-2251-debris",
        "lat": 13.344763145049471,
        "lon": 69.06190156908958,
        "alt_km": 750.1201712434886,
        "timestamp": "2025-12-23T09:49:07.475345+00:00",
        "meta_object_name": "COSMOS 2251 DEB",
        "meta_object_id": "1993-036M",
        "meta_epoch": "2025-12-22T23:05:43.969344",
        "meta_mean_motion": 14.3953041,
        "meta_eccentricity": 0.00234876,
        "meta_inclination": 74.0333,
        "meta_ra_of_asc_node": 253.7809,
        "meta_arg_of_pericenter": 217.5971,
        "meta_mean_anomaly": 154.0883,
        "meta_ephemeris_type": 0,
        "meta_classification_type": "U",
        "meta_norad_cat_id": 33764,
        "meta_element_set_no": 999,
        "meta_rev_at_epoch": 88304,
        "meta_bstar": 0.00028191738,
        "meta_mean_motion_dot": 8.56e-06,
        "meta_mean_motion_ddot": 0,
        "tle_line1": "1 33764U 93036M   25356.96231446  .00000856  00000+0  28192-3 0  9993",
        "tle_line2": "2 33764  74.0333 253.7809 0023487 217.5971 154.0883 14.39530410883047"
      },
      "geometry": {
        "type": "Point",
        "coordinates": [
          69.06190156908958,
          13.344763145049471
        ]
      }
    }
  ]
}